0 IRIDIUM 106
1 41917U 17003A   24014.22135512  .00000574  00000-0  19796-3 0  9996
2 41917  86.3965  98.3913 0001768  95.5674 264.5724 14.34224097366362
0 IRIDIUM 103
1 41918U 17003B   24014.27845135  .00000188  00000-0  59963-4 0  9993
2 41918  86.3961  98.2698 0002219  88.6310 271.5140 14.34217051366395
0 IRIDIUM 109
1 41919U 17003C   24014.28479403  .00000364  00000-0  12275-3 0  9996
2 41919  86.3963  98.3114 0002343  96.7238 263.4225 14.34217217366364
0 IRIDIUM 102
1 41920U 17003D   24014.60192085  .00000446  00000-0  15221-3 0  9997
2 41920  86.3963  98.1215 0002250  99.0729 261.0722 14.34215804366494
0 IRIDIUM 105
1 41921U 17003E   24014.57269338  .00000539  00000-0  18533-3 0  9992
2 41921  86.3946  66.5355 0002206  92.3596 267.7853 14.34213758368349
0 IRIDIUM 104
1 41922U 17003F   24014.61460861  .00000532  00000-0  18273-3 0  9996
2 41922  86.3965  98.1460 0002326  94.9357 265.2104 14.34219710366484
0 IRIDIUM 114
1 41923U 17003G   24014.27210533  .00000443  00000-0  15111-3 0  9997
2 41923  86.3965  98.2754 0001894  98.9991 261.1420 14.34219332366418
0 IRIDIUM 108
1 41924U 17003H   24014.57947140 -.00000015  00000-0 -12597-4 0  9995
2 41924  86.3940  66.4670 0001769  98.2590 261.8807 14.34217282368314
